[{"OBJECT_NAME":"STARLINK-31886","OBJECT_ID":"2024-084J","EPOCH":"2026-03-09T07:29:29.859360","MEAN_MOTION":15.27572869,"ECCENTRICITY":0.00016957,"INCLINATION":43.0081,"RA_OF_ASC_NODE":44.083,"ARG_OF_PERICENTER":279.9777,"MEAN_ANOMALY":80.0883,"EPHEMERIS_TYPE":0,"CLASSIFICATION_TYPE":"U","NORAD_CAT_ID":59662,"ELEMENT_SET_NO":999,"REV_AT_EPOCH":10431,"BSTAR":-6.3017704e-5,"MEAN_MOTION_DOT":-1.996e-5,"MEAN_MOTION_DDOT":0},{"OBJECT_NAME":"FLOCK 4G-21","OBJECT_ID":"2025-009AU","EPOCH":"2026-03-09T04:40:37.351200","MEAN_MOTION":15.28381075,"ECCENTRICITY":4.655e-5,"INCLINATION":97.4032,"RA_OF_ASC_NODE":151.1274,"ARG_OF_PERICENTER":329.5782,"MEAN_ANOMALY":30.5431,"EPHEMERIS_TYPE":0,"CLASSIFICATION_TYPE":"U","NORAD_CAT_ID":62651,"ELEMENT_SET_NO":999,"REV_AT_EPOCH":6367,"BSTAR":0.00049618643,"MEAN_MOTION_DOT":0.00013648,"MEAN_MOTION_DDOT":0}]
